start=new Date('2021-12-10T00:00:00.000Z').valueOf();
sats=[{"EPHEMERIS_TYPE":"0","EPOCH":"2021-12-09T15:26:18.178944","PERIOD":"95.592","SITE":"AFETR","TLE_LINE1":"1 44972U 20001BL  21343.64326596  .00001087  00000-0  91856-4 0  9992","REV_AT_EPOCH":"10663","TLE_LINE2":"2 44972  53.0548  69.5288 0001230  78.0195 282.0932 15.06396084106631","CENTER_NAME":"EARTH","DECAY_DATE":null,"ARG_OF_PERICENTER":"78.0195","ECCENTRICITY":"0.00012300","MEAN_MOTION_DOT":"0.00001087","TIME_SYSTEM":"UTC","LAUNCH_DATE":"2020-01-07","OBJECT_ID":"2020-001BL","BSTAR":"0.00009185600000","CLASSIFICATION_TYPE":"U","GP_ID":"191396455","ELEMENT_SET_NO":"999","SEMIMAJOR_AXIS":"6925.361","MEAN_ELEMENT_THEORY":"SGP4","REF_FRAME":"TEME","INCLINATION":"53.0548","OBJECT_NAME":"STARLINK-1107","APOAPSIS":"548.077","PERIAPSIS":"546.374","OBJECT_TYPE":"PAYLOAD","MEAN_ANOMALY":"282.0932","RCS_SIZE":"LARGE","MEAN_MOTION":"15.06396084","COUNTRY_CODE":"US","MEAN_MOTION_DDOT":"0.0000000000000","RA_OF_ASC_NODE":"69.5288","NORAD_CAT_ID":"44972","FILE":"3236488"},{"PERIOD":"95.592","EPOCH":"2021-12-09T16:29:59.530848","EPHEMERIS_TYPE":"0","ECCENTRICITY":"0.00013810","ARG_OF_PERICENTER":"96.1066","DECAY_DATE":null,"REV_AT_EPOCH":"10663","TLE_LINE2":"2 44973  53.0562  69.3442 0001381  96.1066 264.0081 15.06402605106635","CENTER_NAME":"EARTH","SITE":"AFETR","TLE_LINE1":"1 44973U 20001BM  21343.68749457 -.00001463  00000-0 -79316-4 0  9999","LAUNCH_DATE":"2020-01-07","OBJECT_ID":"2020-001BM","TIME_SYSTEM":"UTC","MEAN_MOTION_DOT":"-0.00001463","ELEMENT_SET_NO":"999","GP_ID":"191396206","CLASSIFICATION_TYPE":"U","BSTAR":"-0.00007931600000","REF_FRAME":"TEME","MEAN_ELEMENT_THEORY":"SGP4","SEMIMAJOR_AXIS":"6925.341","MEAN_ANOMALY":"264.0081","OBJECT_TYPE":"PAYLOAD","PERIAPSIS":"546.249","APOAPSIS":"548.162","OBJECT_NAME":"STARLINK-1115","INCLINATION":"53.0562","COUNTRY_CODE":"US","MEAN_MOTION":"15.06402605","RCS_SIZE":"LARGE","FILE":"3236488","NORAD_CAT_ID":"44973","RA_OF_ASC_NODE":"69.3442","MEAN_MOTION_DDOT":"0.0000000000000"},{"MEAN_MOTION_DOT":"0.00001040","TIME_SYSTEM":"UTC","OBJECT_ID":"2020-006A","LAUNCH_DATE":"2020-01-29","CLASSIFICATION_TYPE":"U","BSTAR":"0.00008872800000","ELEMENT_SET_NO":"999","GP_ID":"191396712","EPHEMERIS_TYPE":"0","EPOCH":"2021-12-09T20:39:27.529920","PERIOD":"95.592","REV_AT_EPOCH":"10299","TLE_LINE2":"2 45044  53.0562  28.5657 0001525  62.9758 297.1387 15.06399027102993","CENTER_NAME":"EARTH","TLE_LINE1":"1 45044U 20006A   21343.86073530  .00001040  00000-0  88728-4 0  9992","SITE":"AFETR","DECAY_DATE":null,"ARG_OF_PERICENTER":"62.9758","ECCENTRICITY":"0.00015250","MEAN_MOTION":"15.06399027","RCS_SIZE":"LARGE","COUNTRY_CODE":"US","RA_OF_ASC_NODE":"28.5657","MEAN_MOTION_DDOT":"0.0000000000000","NORAD_CAT_ID":"45044","FILE":"3236488","SEMIMAJOR_AXIS":"6925.352","MEAN_ELEMENT_THEORY":"SGP4","REF_FRAME":"TEME","INCLINATION":"53.0562","OBJECT_NAME":"STARLINK-1132","APOAPSIS":"548.273","PERIAPSIS":"546.160","OBJECT_TYPE":"PAYLOAD","MEAN_ANOMALY":"297.1387"},{"ELEMENT_SET_NO":"999","GP_ID":"191396964","CLASSIFICATION_TYPE":"U","BSTAR":"0.00009310700000","LAUNCH_DATE":"2020-01-29","OBJECT_ID":"2020-006B","TIME_SYSTEM":"UTC","MEAN_MOTION_DOT":"0.00001106","ECCENTRICITY":"0.00012670","ARG_OF_PERICENTER":"66.2999","DECAY_DATE":null,"CENTER_NAME":"EARTH","TLE_LINE2":"2 45045  53.0554  50.4042 0001267  66.2999 293.8123 15.06395084102657","REV_AT_EPOCH":"10265","TLE_LINE1":"1 45045U 20006B   21343.44975587  .00001106  00000-0  93107-4 0  9990","SITE":"AFETR","PERIOD":"95.592","EPOCH":"2021-12-09T10:47:38.907168","EPHEMERIS_TYPE":"0","NORAD_CAT_ID":"45045","FILE":"3236488","RA_OF_ASC_NODE":"50.4042","MEAN_MOTION_DDOT":"0.0000000000000","COUNTRY_CODE":"US","MEAN_MOTION":"15.06395084","RCS_SIZE":"LARGE","OBJECT_TYPE":"PAYLOAD","MEAN_ANOMALY":"293.8123","PERIAPSIS":"546.351","APOAPSIS":"548.106","INCLINATION":"53.0554","OBJECT_NAME":"STARLINK-1120","REF_FRAME":"TEME","MEAN_ELEMENT_THEORY":"SGP4","SEMIMAJOR_AXIS":"6925.364"},{"ECCENTRICITY":"0.00009610","ARG_OF_PERICENTER":"91.5981","DECAY_DATE":null,"TLE_LINE1":"1 45046U 20006C   21343.69692743  .00003021  00000-0  20808-3 0  9993","SITE":"AFETR","TLE_LINE2":"2 45046  52.9988  44.9115 0000961  91.5981 268.5119 15.08787157102728","REV_AT_EPOCH":"10272","CENTER_NAME":"EARTH","EPOCH":"2021-12-09T16:43:34.529952","PERIOD":"95.441","EPHEMERIS_TYPE":"0","GP_ID":"191397714","ELEMENT_SET_NO":"999","BSTAR":"0.00020808000000","CLASSIFICATION_TYPE":"U","LAUNCH_DATE":"2020-01-29","OBJECT_ID":"2020-006C","TIME_SYSTEM":"UTC","MEAN_MOTION_DOT":"0.00003021","MEAN_ANOMALY":"268.5119","OBJECT_TYPE":"PAYLOAD","PERIAPSIS":"539.242","APOAPSIS":"540.572","INCLINATION":"52.9988","OBJECT_NAME":"STARLINK-1129","REF_FRAME":"TEME","MEAN_ELEMENT_THEORY":"SGP4","SEMIMAJOR_AXIS":"6918.042","NORAD_CAT_ID":"45046","FILE":"3236488","MEAN_MOTION_DDOT":"0.0000000000000","RA_OF_ASC_NODE":"44.9115","COUNTRY_CODE":"US","MEAN_MOTION":"15.08787157","RCS_SIZE":"LARGE"},{"RA_OF_ASC_NODE":"49.8004","MEAN_MOTION_DDOT":"0.0000000000000","NORAD_CAT_ID":"45047","FILE":"3236488","RCS_SIZE":"LARGE","MEAN_MOTION":"15.06394043","COUNTRY_CODE":"US","APOAPSIS":"548.221","PERIAPSIS":"546.242","INCLINATION":"53.0556","OBJECT_NAME":"STARLINK-1131","OBJECT_TYPE":"PAYLOAD","MEAN_ANOMALY":"281.7327","MEAN_ELEMENT_THEORY":"SGP4","SEMIMAJOR_AXIS":"6925.367","REF_FRAME":"TEME","ELEMENT_SET_NO":"999","GP_ID":"191396462","CLASSIFICATION_TYPE":"U","BSTAR":"-0.00001902100000","MEAN_MOTION_DOT":"-0.00000565","OBJECT_ID":"2020-006D","LAUNCH_DATE":"2020-01-29","TIME_SYSTEM":"UTC","DECAY_DATE":null,"REV_AT_EPOCH":"10267","TLE_LINE2":"2 45047  53.0556  49.8004 0001429  78.3822 281.7327 15.06394043102678","CENTER_NAME":"EARTH","SITE":"AFETR","TLE_LINE1":"1 45047U 20006D   21343.58613615 -.00000565  00000-0 -19021-4 0  9991","ECCENTRICITY":"0.00014290","ARG_OF_PERICENTER":"78.3822","EPHEMERIS_TYPE":"0","EPOCH":"2021-12-09T14:04:02.163360","PERIOD":"95.593"},{"INCLINATION":"53.0552","OBJECT_NAME":"STARLINK-1134","APOAPSIS":"548.145","PERIAPSIS":"546.330","OBJECT_TYPE":"PAYLOAD","MEAN_ANOMALY":"285.9598","SEMIMAJOR_AXIS":"6925.373","MEAN_ELEMENT_THEORY":"SGP4","REF_FRAME":"TEME","RA_OF_ASC_NODE":"49.7597","MEAN_MOTION_DDOT":"0.0000000000000","FILE":"3236488","NORAD_CAT_ID":"45048","MEAN_MOTION":"15.06392173","RCS_SIZE":"LARGE","COUNTRY_CODE":"US","REV_AT_EPOCH":"10267","TLE_LINE2":"2 45048  53.0552  49.7597 0001310  74.1535 285.9598 15.06392173102673","CENTER_NAME":"EARTH","SITE":"AFETR","TLE_LINE1":"1 45048U 20006E   21343.59350773  .00001156  00000-0  96485-4 0  9990","DECAY_DATE":null,"ARG_OF_PERICENTER":"74.1535","ECCENTRICITY":"0.00013100","EPHEMERIS_TYPE":"0","PERIOD":"95.593","EPOCH":"2021-12-09T14:14:39.067872","CLASSIFICATION_TYPE":"U","BSTAR":"0.00009648500000","ELEMENT_SET_NO":"999","GP_ID":"191396213","MEAN_MOTION_DOT":"0.00001156","TIME_SYSTEM":"UTC","LAUNCH_DATE":"2020-01-29","OBJECT_ID":"2020-006E"},{"REF_FRAME":"TEME","MEAN_ELEMENT_THEORY":"SGP4","SEMIMAJOR_AXIS":"6925.364","OBJECT_TYPE":"PAYLOAD","MEAN_ANOMALY":"292.9736","PERIAPSIS":"546.390","APOAPSIS":"548.069","INCLINATION":"53.0560","OBJECT_NAME":"STARLINK-1135","COUNTRY_CODE":"US","RCS_SIZE":"LARGE","MEAN_MOTION":"15.06394852","FILE":"3236488","NORAD_CAT_ID":"45049","RA_OF_ASC_NODE":"49.4524","MEAN_MOTION_DDOT":"0.0000000000000","PERIOD":"95.592","EPOCH":"2021-12-09T15:55:29.818848","EPHEMERIS_TYPE":"0","ECCENTRICITY":"0.00012120","ARG_OF_PERICENTER":"67.1381","DECAY_DATE":null,"TLE_LINE2":"2 45049  53.0560  49.4524 0001212  67.1381 292.9736 15.06394852102681","REV_AT_EPOCH":"10268","CENTER_NAME":"EARTH","TLE_LINE1":"1 45049U 20006F   21343.66353957 -.00000710  00000-0 -28783-4 0  9999","SITE":"AFETR","LAUNCH_DATE":"2020-01-29","OBJECT_ID":"2020-006F","TIME_SYSTEM":"UTC","MEAN_MOTION_DOT":"-0.00000710","ELEMENT_SET_NO":"999","GP_ID":"191397464","CLASSIFICATION_TYPE":"U","BSTAR":"-0.00002878300000"},{"MEAN_ELEMENT_THEORY":"SGP4","SEMIMAJOR_AXIS":"6925.361","REF_FRAME":"TEME","APOAPSIS":"548.200","PERIAPSIS":"546.252","OBJECT_NAME":"STARLINK-1140","INCLINATION":"53.0549","MEAN_ANOMALY":"293.5954","OBJECT_TYPE":"PAYLOAD","RCS_SIZE":"LARGE","MEAN_MOTION":"15.06395946","COUNTRY_CODE":"US","RA_OF_ASC_NODE":"49.7160","MEAN_MOTION_DDOT":"0.0000000000000","FILE":"3236488","NORAD_CAT_ID":"45050","EPHEMERIS_TYPE":"0","EPOCH":"2021-12-09T14:30:33.975360","PERIOD":"95.592","DECAY_DATE":null,"REV_AT_EPOCH":"10267","TLE_LINE2":"2 45050  53.0549  49.7160 0001406  66.5182 293.5954 15.06395946102679","CENTER_NAME":"EARTH","SITE":"AFETR","TLE_LINE1":"1 45050U 20006G   21343.60455990  .00000919  00000-0  80577-4 0  9993","ECCENTRICITY":"0.00014060","ARG_OF_PERICENTER":"66.5182","MEAN_MOTION_DOT":"0.00000919","LAUNCH_DATE":"2020-01-29","OBJECT_ID":"2020-006G","TIME_SYSTEM":"UTC","ELEMENT_SET_NO":"999","GP_ID":"191397215","CLASSIFICATION_TYPE":"U","BSTAR":"0.00008057700000"},{"TLE_LINE1":"1 45051U 20006H   21343.58608201  .00002894  00000-0  20934-3 0  9990","SITE":"AFETR","REV_AT_EPOCH":"10267","TLE_LINE2":"2 45051  53.0542  49.6313 0001217  94.1522 265.9606 15.07073711102678","CENTER_NAME":"EARTH","DECAY_DATE":null,"ARG_OF_PERICENTER":"94.1522","ECCENTRICITY":"0.00012170","EPHEMERIS_TYPE":"0","PERIOD":"95.549","EPOCH":"2021-12-09T14:03:57.485664","BSTAR":"0.00020934000000","CLASSIFICATION_TYPE":"U","GP_ID":"191395963","ELEMENT_SET_NO":"999","MEAN_MOTION_DOT":"0.00002894","TIME_SYSTEM":"UTC","OBJECT_ID":"2020-006H","LAUNCH_DATE":"2020-01-29","INCLINATION":"53.0542","OBJECT_NAME":"STARLINK-1141","PERIAPSIS":"544.307","APOAPSIS":"545.992","OBJECT_TYPE":"PAYLOAD","MEAN_ANOMALY":"265.9606","SEMIMAJOR_AXIS":"6923.284","MEAN_ELEMENT_THEORY":"SGP4","REF_FRAME":"TEME","MEAN_MOTION_DDOT":"0.0000000000000","RA_OF_ASC_NODE":"49.6313","FILE":"3236488","NORAD_CAT_ID":"45051","RCS_SIZE":"LARGE","MEAN_MOTION":"15.07073711","COUNTRY_CODE":"US"}];
